{"fetched_at":"2026-07-14T06:34:20.123Z","source":"https://celestrak.org/NORAD/elements/gp.php?GROUP=kuiper&FORMAT=JSON","constellation":"kuiper","records":[{"OBJECT_NAME":"KUIPER-00096","OBJECT_ID":"2025-171D","EPOCH":"2026-07-13T13:16:23.028384","CLASSIFICATION_TYPE":"U","MEAN_MOTION":14.7992915,"ECCENTRICITY":0.000038,"INCLINATION":51.9023,"RA_OF_ASC_NODE":321.5064,"ARG_OF_PERICENTER":119.912,"MEAN_ANOMALY":240.188,"EPHEMERIS_TYPE":0,"NORAD_CAT_ID":65135,"ELEMENT_SET_NO":999,"REV_AT_EPOCH":5153,"BSTAR":0.00025408,"MEAN_MOTION_DOT":0.00001716,"MEAN_MOTION_DDOT":0},{"OBJECT_NAME":"KUIPER-00097","OBJECT_ID":"2025-171E","EPOCH":"2026-07-13T13:12:31.655232","CLASSIFICATION_TYPE":"U","MEAN_MOTION":14.79931837,"ECCENTRICITY":0.0000434,"INCLINATION":51.9032,"RA_OF_ASC_NODE":324.1746,"ARG_OF_PERICENTER":104.3998,"MEAN_ANOMALY":255.7012,"EPHEMERIS_TYPE":0,"NORAD_CAT_ID":65136,"ELEMENT_SET_NO":999,"REV_AT_EPOCH":5148,"BSTAR":0.000070215,"MEAN_MOTION_DOT":0.00000314,"MEAN_MOTION_DDOT":0},{"OBJECT_NAME":"KUIPER-00098","OBJECT_ID":"2025-171F","EPOCH":"2026-07-13T14:45:51.840576","CLASSIFICATION_TYPE":"U","MEAN_MOTION":14.7993335,"ECCENTRICITY":0.000042,"INCLINATION":51.9026,"RA_OF_ASC_NODE":326.2521,"ARG_OF_PERICENTER":105.7016,"MEAN_ANOMALY":254.3993,"EPHEMERIS_TYPE":0,"NORAD_CAT_ID":65137,"ELEMENT_SET_NO":999,"REV_AT_EPOCH":5081,"BSTAR":0.00027354,"MEAN_MOTION_DOT":0.00001865,"MEAN_MOTION_DDOT":0},{"OBJECT_NAME":"KUIPER-00099","OBJECT_ID":"2025-171G","EPOCH":"2026-07-13T14:12:46.499904","CLASSIFICATION_TYPE":"U","MEAN_MOTION":14.79933188,"ECCENTRICITY":0.0000542,"INCLINATION":51.9046,"RA_OF_ASC_NODE":316.3585,"ARG_OF_PERICENTER":115.7587,"MEAN_ANOMALY":244.3431,"EPHEMERIS_TYPE":0,"NORAD_CAT_ID":65138,"ELEMENT_SET_NO":999,"REV_AT_EPOCH":5160,"BSTAR":0.00025875,"MEAN_MOTION_DOT":0.00001752,"MEAN_MOTION_DDOT":0},{"OBJECT_NAME":"KUIPER-00100","OBJECT_ID":"2025-171H","EPOCH":"2026-07-13T19:56:59.904096","CLASSIFICATION_TYPE":"U","MEAN_MOTION":14.79934513,"ECCENTRICITY":0.0000449,"INCLINATION":51.9029,"RA_OF_ASC_NODE":312.7715,"ARG_OF_PERICENTER":103.4459,"MEAN_ANOMALY":256.6554,"EPHEMERIS_TYPE":0,"NORAD_CAT_ID":65139,"ELEMENT_SET_NO":999,"REV_AT_EPOCH":5167,"BSTAR":0.00025596,"MEAN_MOTION_DOT":0.00001731,"MEAN_MOTION_DDOT":0},{"OBJECT_NAME":"KUIPER-00102","OBJECT_ID":"2025-171J","EPOCH":"2026-07-13T18:15:50.007744","CLASSIFICATION_TYPE":"U","MEAN_MOTION":14.7996588,"ECCENTRICITY":0.0000741,"INCLINATION":51.9008,"RA_OF_ASC_NODE":315.5751,"ARG_OF_PERICENTER":6.4115,"MEAN_ANOMALY":353.6857,"EPHEMERIS_TYPE":0,"NORAD_CAT_ID":65140,"ELEMENT_SET_NO":999,"REV_AT_EPOCH":5162,"BSTAR":-0.00026568,"MEAN_MOTION_DOT":-0.00002247,"MEAN_MOTION_DDOT":0},{"OBJECT_NAME":"KUIPER-00103","OBJECT_ID":"2025-171K","EPOCH":"2026-07-13T15:22:49.694880","CLASSIFICATION_TYPE":"U","MEAN_MOTION":14.79932806,"ECCENTRICITY":0.0000468,"INCLINATION":51.9002,"RA_OF_ASC_NODE":333.5989,"ARG_OF_PERICENTER":105.6142,"MEAN_ANOMALY":254.4872,"EPHEMERIS_TYPE":0,"NORAD_CAT_ID":65141,"ELEMENT_SET_NO":999,"REV_AT_EPOCH":5136,"BSTAR":0.00025901,"MEAN_MOTION_DOT":0.00001754,"MEAN_MOTION_DDOT":0},{"OBJECT_NAME":"KUIPER-00104","OBJECT_ID":"2025-171L","EPOCH":"2026-07-13T15:42:14.893056","CLASSIFICATION_TYPE":"U","MEAN_MOTION":14.79933233,"ECCENTRICITY":0.0000477,"INCLINATION":51.9039,"RA_OF_ASC_NODE":321.04,"ARG_OF_PERICENTER":118.4286,"MEAN_ANOMALY":241.6725,"EPHEMERIS_TYPE":0,"NORAD_CAT_ID":65142,"ELEMENT_SET_NO":999,"REV_AT_EPOCH":5154,"BSTAR":0.000070712,"MEAN_MOTION_DOT":0.00000318,"MEAN_MOTION_DDOT":0},{"OBJECT_NAME":"KUIPER-00105","OBJECT_ID":"2025-171M","EPOCH":"2026-07-13T16:19:14.496960","CLASSIFICATION_TYPE":"U","MEAN_MOTION":14.79931944,"ECCENTRICITY":0.0000494,"INCLINATION":51.9023,"RA_OF_ASC_NODE":328.5273,"ARG_OF_PERICENTER":110.5033,"MEAN_ANOMALY":249.5982,"EPHEMERIS_TYPE":0,"NORAD_CAT_ID":65143,"ELEMENT_SET_NO":999,"REV_AT_EPOCH":5144,"BSTAR":0.000038839,"MEAN_MOTION_DOT":7.5e-7,"MEAN_MOTION_DDOT":0},{"OBJECT_NAME":"KUIPER-00106","OBJECT_ID":"2025-171N","EPOCH":"2026-07-13T12:36:58.872960","CLASSIFICATION_TYPE":"U","MEAN_MOTION":14.79931638,"ECCENTRICITY":0.0000479,"INCLINATION":51.9028,"RA_OF_ASC_NODE":307.9719,"ARG_OF_PERICENTER":104.8102,"MEAN_ANOMALY":255.2914,"EPHEMERIS_TYPE":0,"NORAD_CAT_ID":65144,"ELEMENT_SET_NO":999,"REV_AT_EPOCH":5172,"BSTAR":-0.0000045899,"MEAN_MOTION_DOT":-0.00000256,"MEAN_MOTION_DDOT":0},{"OBJECT_NAME":"KUIPER-00107","OBJECT_ID":"2025-171P","EPOCH":"2026-07-13T15:09:10.254816","CLASSIFICATION_TYPE":"U","MEAN_MOTION":14.79933599,"ECCENTRICITY":0.0000428,"INCLINATION":51.9019,"RA_OF_ASC_NODE":311.1841,"ARG_OF_PERICENTER":111.519,"MEAN_ANOMALY":248.5818,"EPHEMERIS_TYPE":0,"NORAD_CAT_ID":65145,"ELEMENT_SET_NO":999,"REV_AT_EPOCH":5168,"BSTAR":0.000093492,"MEAN_MOTION_DOT":0.00000492,"MEAN_MOTION_DDOT":0},{"OBJECT_NAME":"KUIPER-00108","OBJECT_ID":"2025-171Q","EPOCH":"2026-07-13T15:38:22.643808","CLASSIFICATION_TYPE":"U","MEAN_MOTION":14.79932889,"ECCENTRICITY":0.0000496,"INCLINATION":51.9036,"RA_OF_ASC_NODE":323.6309,"ARG_OF_PERICENTER":85.071,"MEAN_ANOMALY":275.0309,"EPHEMERIS_TYPE":0,"NORAD_CAT_ID":65146,"ELEMENT_SET_NO":999,"REV_AT_EPOCH":5151,"BSTAR":0.000017788,"MEAN_MOTION_DOT":-8.5e-7,"MEAN_MOTION_DDOT":0},{"OBJECT_NAME":"KUIPER-00109","OBJECT_ID":"2025-171R","EPOCH":"2026-07-13T18:11:59.464896","CLASSIFICATION_TYPE":"U","MEAN_MOTION":14.79941995,"ECCENTRICITY":0.0000566,"INCLINATION":51.9036,"RA_OF_ASC_NODE":318.1016,"ARG_OF_PERICENTER":122.3973,"MEAN_ANOMALY":237.7045,"EPHEMERIS_TYPE":0,"NORAD_CAT_ID":65147,"ELEMENT_SET_NO":999,"REV_AT_EPOCH":5159,"BSTAR":0.00025422,"MEAN_MOTION_DOT":0.00001718,"MEAN_MOTION_DDOT":0},{"OBJECT_NAME":"KUIPER-00110","OBJECT_ID":"2025-171S","EPOCH":"2026-07-13T08:57:45.720576","CLASSIFICATION_TYPE":"U","MEAN_MOTION":14.79930811,"ECCENTRICITY":0.00005324,"INCLINATION":51.9003,"RA_OF_ASC_NODE":332.3616,"ARG_OF_PERICENTER":85.7092,"MEAN_ANOMALY":274.3932,"EPHEMERIS_TYPE":0,"NORAD_CAT_ID":65148,"ELEMENT_SET_NO":999,"REV_AT_EPOCH":5135,"BSTAR":0.00024005458,"MEAN_MOTION_DOT":0.00001609,"MEAN_MOTION_DDOT":0},{"OBJECT_NAME":"KUIPER-00111","OBJECT_ID":"2025-171T","EPOCH":"2026-07-13T14:30:19.149120","CLASSIFICATION_TYPE":"U","MEAN_MOTION":14.79932208,"ECCENTRICITY":0.0000615,"INCLINATION":51.899,"RA_OF_ASC_NODE":336.2179,"ARG_OF_PERICENTER":130.2884,"MEAN_ANOMALY":229.8132,"EPHEMERIS_TYPE":0,"NORAD_CAT_ID":65149,"ELEMENT_SET_NO":999,"REV_AT_EPOCH":5132,"BSTAR":0.000044465,"MEAN_MOTION_DOT":0.00000118,"MEAN_MOTION_DDOT":0},{"OBJECT_NAME":"KUIPER-00112","OBJECT_ID":"2025-171U","EPOCH":"2026-07-13T15:46:08.923872","CLASSIFICATION_TYPE":"U","MEAN_MOTION":14.79935263,"ECCENTRICITY":0.000033,"INCLINATION":51.9036,"RA_OF_ASC_NODE":318.6007,"ARG_OF_PERICENTER":83.788,"MEAN_ANOMALY":276.312,"EPHEMERIS_TYPE":0,"NORAD_CAT_ID":65150,"ELEMENT_SET_NO":999,"REV_AT_EPOCH":5157,"BSTAR":0.000098234,"MEAN_MOTION_DOT":0.00000528,"MEAN_MOTION_DDOT":0}]}
